ALOS-4 (DAICHI-4)       
1 60182U 24123A   24241.90250145  .00004703  00000+0  63596-3 0  9993
2 60182  97.9210 337.5186 0001587  99.3552 260.7839 14.79484603  8698
